NORAD_CAT_ID,OBJECT_NAME,OBJECT_TYPE,EPOCH,MEAN_MOTION,ECCENTRICITY,INCLINATION,RA_OF_ASC_NODE,ARG_OF_PERICENTER,MEAN_ANOMALY,BSTAR,MEAN_MOTION_DOT,MEAN_MOTION_DDOT,TLE_LINE0,TLE_LINE1,TLE_LINE2,SEMIMAJOR_AXIS,PERIOD,APOGEE,PERIGEE,DECAYED
53977.0,STARLINK-5094,PAYLOAD,2023-10-20 20:25:23,15.08831398,0.0001628,53.2148,168.5775,77.9049,282.2126,3.5683e-05,2.8e-06,0.0,0 STARLINK-5094,1 53977U 22125P   23293.85096459  .00000280  00000-0  35683-4 0  9997,2 53977  53.2148 168.5775 0001628  77.9049 282.2126 15.08831398 57997,6917.907,95.438,540.898,538.645,0.0
53977.0,STARLINK-5094,PAYLOAD,2023-10-20 22:00:46,15.08830389,0.0001612,53.2151,168.2801,76.5671,283.55,6.8006e-05,7.94e-06,0.0,0 STARLINK-5094,1 53977U 22125P   23293.91720532  .00000794  00000-0  68006-4 0  9995,2 53977  53.2151 168.2801 0001612  76.5671 283.5500 15.08830389 57930,6917.91,95.438,540.89,538.66,0.0
53977.0,STARLINK-5094,PAYLOAD,2023-10-21 09:08:28,15.0884197,0.0001643,53.2151,166.1991,77.8441,282.2735,0.00047104,7.217e-05,0.0,0 STARLINK-5094,1 53977U 22125P   23294.38088374  .00007217  00000-0  47104-3 0  9990,2 53977  53.2151 166.1991 0001643  77.8441 282.2735 15.08841970 58070,6917.874,95.437,540.876,538.603,0.0
53977.0,STARLINK-5094,PAYLOAD,2023-10-21 21:51:32,15.08867843,0.0001605,53.2148,163.8191,89.0175,271.1001,0.0012091,0.00019022,0.0,0 STARLINK-5094,1 53977U 22125P   23294.91079859  .00019022  00000-0  12091-2 0  9990,2 53977  53.2148 163.8191 0001605  89.0175 271.1001 15.08867843 58080,6917.795,95.436,540.771,538.55,0.0
53977.0,STARLINK-5094,PAYLOAD,2023-10-22 08:59:14,15.0884778,0.0001842,53.2156,161.737,86.316,273.8043,-1.333e-05,-5e-06,0.0,0 STARLINK-5094,1 53977U 22125P   23295.37447890 -.00000500  00000-0 -13330-4 0  9997,2 53977  53.2156 161.7370 0001842  86.3160 273.8043 15.08847780 58221,6917.857,95.437,540.996,538.447,0.0
53977.0,STARLINK-5094,PAYLOAD,2023-10-22 18:31:34,15.08826336,0.0001741,53.2152,159.9532,83.0809,277.0381,-0.00045272,-7.483e-05,0.0,0 STARLINK-5094,1 53977U 22125P   23295.77192425 -.00007483  00000-0 -45272-3 0  9998,2 53977  53.2152 159.9532 0001741  83.0809 277.0381 15.08826336 58289,6917.922,95.438,540.992,538.583,0.0
53977.0,STARLINK-5094,PAYLOAD,2023-10-22 21:42:20,15.08818814,0.000174,53.2156,159.3592,75.4628,284.6557,0.0011929,0.00018737,0.0,0 STARLINK-5094,1 53977U 22125P   23295.90440867  .00018737  00000-0  11929-2 0  9992,2 53977  53.2156 159.3592 0001740  75.4628 284.6557 15.08818814 58232,6917.945,95.439,541.014,538.606,0.0
53977.0,STARLINK-5094,PAYLOAD,2023-10-23 21:33:08,15.08847623,0.0001778,53.2162,154.8992,74.7587,285.3602,0.0010814,0.00016968,0.0,0 STARLINK-5094,1 53977U 22125P   23296.89801347  .00016968  00000-0  10814-2 0  9991,2 53977  53.2162 154.8992 0001778  74.7587 285.3602 15.08847623 58385,6917.857,95.437,540.952,538.492,0.0
53977.0,STARLINK-5094,PAYLOAD,2023-10-24 00:43:54,15.08851486,0.0001754,53.2162,154.3041,75.5011,284.6176,0.0010213,0.00016008,0.0,0 STARLINK-5094,1 53977U 22125P   23297.03049254  .00016008  00000-0  10213-2 0  9997,2 53977  53.2162 154.3041 0001754  75.5011 284.6176 15.08851486 58470,6917.845,95.437,540.924,538.497,0.0
53977.0,STARLINK-5094,PAYLOAD,2023-10-24 07:05:27,15.0884987,0.0001754,53.216,153.1144,75.3303,284.7883,0.00065444,0.00010146,0.0,0 STARLINK-5094,1 53977U 22125P   23297.29545160  .00010146  00000-0  65444-3 0  9996,2 53977  53.2160 153.1144 0001754  75.3303 284.7883 15.08849870 58516,6917.85,95.437,540.929,538.502,0.0
53977.0,STARLINK-5094,PAYLOAD,2023-10-25 00:34:40,15.08861272,0.0001717,53.2159,149.8433,74.932,285.1862,0.00058757,9.081e-05,0.0,0 STARLINK-5094,1 53977U 22125P   23298.02408398  .00009081  00000-0  58757-3 0  9994,2 53977  53.2159 149.8433 0001717  74.9320 285.1862 15.08861272 58556,6917.815,95.436,540.868,538.493,0.0
53977.0,STARLINK-5094,PAYLOAD,2023-10-26 19:30:05,15.08840405,0.0001541,53.2141,141.8128,80.5776,279.539,0.00014868,2.079e-05,0.0,0 STARLINK-5094,1 53977U 22125P   23299.81256648  .00002079  00000-0  14868-3 0  9996,2 53977  53.2141 141.8128 0001541  80.5776 279.5390 15.08840405 58898,6917.879,95.438,540.81,538.678,0.0
53977.0,STARLINK-5094,PAYLOAD,2023-10-26 21:05:28,15.08843066,0.0001558,53.2142,141.5155,78.7198,281.3969,9.0145e-05,1.147e-05,0.0,0 STARLINK-5094,1 53977U 22125P   23299.87880503  .00001147  00000-0  90145-4 0  9993,2 53977  53.2142 141.5155 0001558  78.7198 281.3969 15.08843066 58834,6917.871,95.437,540.814,538.658,0.0
53977.0,STARLINK-5094,PAYLOAD,2023-10-27 12:59:20,15.0884354,0.0001556,53.2141,138.5437,88.6717,271.4454,0.00017743,2.537e-05,0.0,0 STARLINK-5094,1 53977U 22125P   23300.54120480  .00002537  00000-0  17743-3 0  9997,2 53977  53.2141 138.5437 0001556  88.6717 271.4454 15.08843540 58934,6917.87,95.437,540.811,538.658,0.0
53977.0,STARLINK-5094,PAYLOAD,2023-10-27 20:56:15,15.08846492,0.0001596,53.2143,137.0568,88.1033,272.0142,0.00021785,3.181e-05,0.0,0 STARLINK-5094,1 53977U 22125P   23300.87240339  .00003181  00000-0  21785-3 0  9996,2 53977  53.2143 137.0568 0001596  88.1033 272.0142 15.08846492 58980,6917.861,95.437,540.83,538.621,0.0
53977.0,STARLINK-5094,PAYLOAD,2023-10-27 22:31:38,15.0884765,0.0001608,53.2143,136.7594,87.9857,272.1319,0.00023371,3.434e-05,0.0,0 STARLINK-5094,1 53977U 22125P   23300.93864279  .00003434  00000-0  23371-3 0  9992,2 53977  53.2143 136.7594 0001608  87.9857 272.1319 15.08847650 59064,6917.857,95.437,540.834,538.61,0.0
53977.0,STARLINK-5094,PAYLOAD,2023-10-28 06:28:34,15.08836583,0.0001807,53.2146,135.27,84.9601,275.1597,-1.1299e-08,-2.88e-06,0.0,0 STARLINK-5094,1 53977U 22125P   23301.26984675 -.00000288  00000-0 -11299-7 0  9998,2 53977  53.2146 135.2700 0001807  84.9601 275.1597 15.08836583 59115,6917.891,95.438,541.006,538.506,0.0
53977.0,STARLINK-5094,PAYLOAD,2023-10-28 22:22:26,15.08837431,0.0001619,53.214,132.2977,90.3685,269.7493,-1.6685e-05,-5.54e-06,0.0,0 STARLINK-5094,1 53977U 22125P   23301.93225064 -.00000554  00000-0 -16685-4 0  9999,2 53977  53.2140 132.2977 0001619  90.3685 269.7493 15.08837431 59146,6917.888,95.438,540.873,538.633,0.0
53977.0,STARLINK-5094,PAYLOAD,2023-10-29 06:19:22,15.08842286,0.0001603,53.2145,130.8113,86.8064,273.3112,0.00012997,1.781e-05,0.0,0 STARLINK-5094,1 53977U 22125P   23302.26344946  .00001781  00000-0  12997-3 0  9999,2 53977  53.2145 130.8113 0001603  86.8064 273.3112 15.08842286 59199,6917.873,95.437,540.847,538.629,0.0
53977.0,STARLINK-5094,PAYLOAD,2023-10-29 19:02:26,15.08850881,0.0001618,53.2141,128.432,85.9566,274.1611,0.00035808,5.417e-05,0.0,0 STARLINK-5094,1 53977U 22125P   23302.79336643  .00005417  00000-0  35808-3 0  9998,2 53977  53.2141 128.4320 0001618  85.9566 274.1611 15.08850881 59341,6917.847,95.437,540.831,538.593,0.0
53977.0,STARLINK-5094,PAYLOAD,2023-10-29 22:13:12,15.08855725,0.0001607,53.2145,127.8367,86.5196,273.598,0.00043239,6.603e-05,0.0,0 STARLINK-5094,1 53977U 22125P   23302.92584427  .00006603  00000-0  43239-3 0  9993,2 53977  53.2145 127.8367 0001607  86.5196 273.5980 15.08855725 59291,6917.832,95.437,540.809,538.586,0.0
53977.0,STARLINK-5094,PAYLOAD,2023-10-30 12:31:41,15.0885135,0.0001437,53.2148,125.1599,91.7643,268.3514,0.00035329,5.341e-05,0.0,0 STARLINK-5094,1 53977U 22125P   23303.52200388  .00005341  00000-0  35329-3 0  9990,2 53977  53.2148 125.1599 0001437  91.7643 268.3514 15.08851350 59451,6917.846,95.437,540.705,538.717,0.0
53977.0,STARLINK-5094,PAYLOAD,2023-10-30 18:53:13,15.0885542,0.0001476,53.2148,123.9704,92.0076,268.1085,0.00033033,4.975e-05,0.0,0 STARLINK-5094,1 53977U 22125P   23303.78696077  .00004975  00000-0  33033-3 0  9994,2 53977  53.2148 123.9704 0001476  92.0076 268.1085 15.08855420 59422,6917.833,95.437,540.719,538.677,0.0
53977.0,STARLINK-5094,PAYLOAD,2023-10-31 12:22:28,15.08844146,0.0002031,53.2168,120.7027,96.5635,263.5589,2.0469e-05,3.8e-07,0.0,0 STARLINK-5094,1 53977U 22125P   23304.51560236  .00000038  00000-0  20469-4 0  9999,2 53977  53.2168 120.7027 0002031  96.5635 263.5589 15.08844146 59606,6917.868,95.437,541.138,538.328,0.0
53977.0,STARLINK-5094,PAYLOAD,2023-10-31 18:44:00,15.08840055,0.0001569,53.2163,119.5116,94.8562,265.261,-5.3671e-05,-1.142e-05,0.0,0 STARLINK-5094,1 53977U 22125P   23304.78056450 -.00001142  00000-0 -53671-4 0  9996,2 53977  53.2163 119.5116 0001569  94.8562 265.2610 15.08840055 59576,6917.88,95.438,540.831,538.66,0.0
53977.0,STARLINK-5094,PAYLOAD,2023-11-01 04:16:19,15.08840218,0.000153,53.217,117.7279,93.524,266.5927,-4.893e-05,-1.067e-05,0.0,0 STARLINK-5094,1 53977U 22125P   23305.17800856 -.00001067  00000-0 -48930-4 0  9995,2 53977  53.2170 117.7279 0001530  93.5240 266.5927 15.08840218 59702,6917.88,95.438,540.803,538.686,0.0
53977.0,STARLINK-5094,PAYLOAD,2023-11-01 12:13:15,15.08853469,0.0001355,53.2173,116.2405,100.1756,259.9389,-0.00025,-4.266e-05,0.0,0 STARLINK-5094,1 53977U 22125P   23305.50920700 -.00004266  00000-0 -25000-3 0  9999,2 53977  53.2173 116.2405 0001355 100.1756 259.9389 15.08853469 59689,6917.839,95.437,540.642,538.767,0.0
53977.0,STARLINK-5094,PAYLOAD,2023-11-01 20:10:10,15.08853749,0.0001374,53.2175,114.7547,97.7178,262.397,-0.00020736,-3.588e-05,0.0,0 STARLINK-5094,1 53977U 22125P   23305.84040346 -.00003588  00000-0 -20736-3 0  9992,2 53977  53.2175 114.7547 0001374  97.7178 262.3970 15.08853749 59800,6917.838,95.437,540.654,538.753,0.0
53977.0,STARLINK-5094,PAYLOAD,2023-11-02 04:07:07,15.08832825,0.0001464,53.2177,113.2677,97.3927,262.7232,7.4212e-05,8.93e-06,0.0,0 STARLINK-5094,1 53977U 22125P   23306.17161206  .00000893  00000-0  74212-4 0  9991,2 53977  53.2177 113.2677 0001464  97.3927 262.7232 15.08832825 59850,6917.902,95.438,540.78,538.755,0.0
53977.0,STARLINK-5094,PAYLOAD,2023-11-02 12:04:03,15.08832921,0.0001463,53.2178,111.7808,97.2438,262.8721,7.1611e-05,8.52e-06,0.0,0 STARLINK-5094,1 53977U 22125P   23306.50281365  .00000852  00000-0  71611-4 0  9992,2 53977  53.2178 111.7808 0001463  97.2438 262.8721 15.08832921 59834,6917.902,95.438,540.779,538.755,0.0
